[
    {
        "Altitude(m)": 590177.3351388412,
        "Argument of Periapsis(deg)": -0.007534386927657468,
        "Eccentricity": 0.0,
        "Inclination(deg)": 97.0,
        "Latitude(deg)": -72.65519324581096,
        "Longitude(deg)": 86.22257901665945,
        "Mean Anomaly(deg)": 253.9530477563958,
        "RAAN(deg)": 30.00198235120617,
        "Satellite Name": "Starlink Shell 3 1681",
        "Satellite Number": 1681,
        "Semi-Major Axis(m)": 6938478.169268562,
        "Time(s)": 190
    },
    {
        "Altitude(m)": 590300.5270716288,
        "Argument of Periapsis(deg)": -0.007930933608060494,
        "Eccentricity": 0.0,
        "Inclination(deg)": 97.0,
        "Latitude(deg)": -73.22020543125589,
        "Longitude(deg)": 85.30703374837749,
        "Mean Anomaly(deg)": 254.57852395410083,
        "RAAN(deg)": 30.002086685480176,
        "Satellite Name": "Starlink Shell 3 1681",
        "Satellite Number": 1681,
        "Semi-Major Axis(m)": 6938478.169268562,
        "Time(s)": 200
    },
    {
        "Altitude(m)": 590419.2257582711,
        "Argument of Periapsis(deg)": -0.008327480288463517,
        "Eccentricity": 0.0,
        "Inclination(deg)": 97.0,
        "Latitude(deg)": -73.78124288478963,
        "Longitude(deg)": 84.33268427622995,
        "Mean Anomaly(deg)": 255.20400015180587,
        "RAAN(deg)": 30.002191019754186,
        "Satellite Name": "Starlink Shell 3 1681",
        "Satellite Number": 1681,
        "Semi-Major Axis(m)": 6938478.169268562,
        "Time(s)": 210
    },
    {
        "Altitude(m)": 590533.3831732661,
        "Argument of Periapsis(deg)": -0.008724026968866542,
        "Eccentricity": 0.0,
        "Inclination(deg)": 97.0,
        "Latitude(deg)": -74.33788528042584,
        "Longitude(deg)": 83.29369138797784,
        "Mean Anomaly(deg)": 255.8294763495109,
        "RAAN(deg)": 30.002295354028195,
        "Satellite Name": "Starlink Shell 3 1681",
        "Satellite Number": 1681,
        "Semi-Major Axis(m)": 6938478.169268562,
        "Time(s)": 220
    },
    {
        "Altitude(m)": 590642.9531206335,
        "Argument of Periapsis(deg)": -0.009120573649269567,
        "Eccentricity": 0.0,
        "Inclination(deg)": 97.0,
        "Latitude(deg)": -74.88965370210505,
        "Longitude(deg)": 82.18350261487807,
        "Mean Anomaly(deg)": 256.45495254721595,
        "RAAN(deg)": 30.0023996883022,
        "Satellite Name": "Starlink Shell 3 1681",
        "Satellite Number": 1681,
        "Semi-Major Axis(m)": 6938478.169268562,
        "Time(s)": 230
    },
    {
        "Altitude(m)": 590747.8912535307,
        "Argument of Periapsis(deg)": -0.009517120329672592,
        "Eccentricity": 0.0,
        "Inclination(deg)": 97.0,
        "Latitude(deg)": -75.43600097585788,
        "Longitude(deg)": 80.99475953091118,
        "Mean Anomaly(deg)": 257.080428744921,
        "RAAN(deg)": 30.00250402257621,
        "Satellite Name": "Starlink Shell 3 1681",
        "Satellite Number": 1681,
        "Semi-Major Axis(m)": 6938478.169268562,
        "Time(s)": 240
    },
    {
        "Altitude(m)": 590848.1550930645,
        "Argument of Periapsis(deg)": -0.009913667010075618,
        "Eccentricity": 0.0,
        "Inclination(deg)": 97.0,
        "Latitude(deg)": -75.97630025864531,
        "Longitude(deg)": 79.7191941747964,
        "Mean Anomaly(deg)": 257.70590494262603,
        "RAAN(deg)": 30.002608356850217,
        "Satellite Name": "Starlink Shell 3 1681",
        "Satellite Number": 1681,
        "Semi-Major Axis(m)": 6938478.169268562,
        "Time(s)": 250
    },
    {
        "Altitude(m)": 590943.7040463304,
        "Argument of Periapsis(deg)": -0.010310213690478642,
        "Eccentricity": 0.0,
        "Inclination(deg)": 97.0,
        "Latitude(deg)": -76.50983158393575,
        "Longitude(deg)": 78.34751880734835,
        "Mean Anomaly(deg)": 258.33138114033113,
        "RAAN(deg)": 30.002712691124227,
        "Satellite Name": "Starlink Shell 3 1681",
        "Satellite Number": 1681,
        "Semi-Major Axis(m)": 6938478.169268562,
        "Time(s)": 260
    },
    {
        "Altitude(m)": 591034.499423607,
        "Argument of Periapsis(deg)": -0.010706760370881667,
        "Eccentricity": 0.0,
        "Inclination(deg)": 97.0,
        "Latitude(deg)": -77.0357660363602,
        "Longitude(deg)": 76.869310217864,
        "Mean Anomaly(deg)": 258.9568573380361,
        "RAAN(deg)": 30.002817025398244,
        "Satellite Name": "Starlink Shell 3 1681",
        "Satellite Number": 1681,
        "Semi-Major Axis(m)": 6938478.169268562,
        "Time(s)": 270
    },
    {
        "Altitude(m)": 591120.5044547501,
        "Argument of Periapsis(deg)": -0.011103307051284692,
        "Eccentricity": 0.0,
        "Inclination(deg)": 97.0,
        "Latitude(deg)": -77.55314721620178,
        "Longitude(deg)": 75.27289220745631,
        "Mean Anomaly(deg)": 259.5823335357412,
        "RAAN(deg)": 30.00292135967225,
        "Satellite Name": "Starlink Shell 3 1681",
        "Satellite Number": 1681,
        "Semi-Major Axis(m)": 6938478.169268562,
        "Time(s)": 280
    },
    {
        "Altitude(m)": 591201.6843047616,
        "Argument of Periapsis(deg)": -0.011499853731687715,
        "Eccentricity": 0.0,
        "Inclination(deg)": 97.0,
        "Latitude(deg)": -78.06086967517716,
        "Longitude(deg)": 73.54522809438623,
        "Mean Anomaly(deg)": 260.20780973344625,
        "RAAN(deg)": 30.00302569394626,
        "Satellite Name": "Starlink Shell 3 1681",
        "Satellite Number": 1681,
        "Semi-Major Axis(m)": 6938478.169268562,
        "Time(s)": 290
    },
    {
        "Altitude(m)": 591278.006088539,
        "Argument of Periapsis(deg)": -0.011896400412090741,
        "Eccentricity": 0.0,
        "Inclination(deg)": 97.0,
        "Latitude(deg)": -78.55765408399036,
        "Longitude(deg)": 71.67183600200725,
        "Mean Anomaly(deg)": 260.8332859311513,
        "RAAN(deg)": 30.00313002822027,
        "Satellite Name": "Starlink Shell 3 1681",
        "Satellite Number": 1681,
        "Semi-Major Axis(m)": 6938478.169268562,
        "Time(s)": 300
    },
    {
        "Altitude(m)": 591349.4388847689,
        "Argument of Periapsis(deg)": -0.012292947092493765,
        "Eccentricity": 0.0,
        "Inclination(deg)": 97.0,
        "Latitude(deg)": -79.04201906985992,
        "Longitude(deg)": 69.63674754091764,
        "Mean Anomaly(deg)": 261.45876212885634,
        "RAAN(deg)": 30.003234362494275,
        "Satellite Name": "Starlink Shell 3 1681",
        "Satellite Number": 1681,
        "Semi-Major Axis(m)": 6938478.169268562,
        "Time(s)": 310
    },
    {
        "Altitude(m)": 591415.953749018,
        "Argument of Periapsis(deg)": -0.012689493772896788,
        "Eccentricity": 0.0,
        "Inclination(deg)": 97.0,
        "Latitude(deg)": -79.51224999865337,
        "Longitude(deg)": 67.42254593707817,
        "Mean Anomaly(deg)": 262.0842383265614,
        "RAAN(deg)": 30.003338696768285,
        "Satellite Name": "Starlink Shell 3 1681",
        "Satellite Number": 1681,
        "Semi-Major Axis(m)": 6938478.169268562,
        "Time(s)": 320
    },
    {
        "Altitude(m)": 591477.5237259481,
        "Argument of Periapsis(deg)": -0.013086040453299813,
        "Eccentricity": 0.0,
        "Inclination(deg)": 97.0,
        "Latitude(deg)": -79.96636555579151,
        "Longitude(deg)": 65.0105295418252,
        "Mean Anomaly(deg)": 262.7097145242664,
        "RAAN(deg)": 30.003443031042295,
        "Satellite Name": "Starlink Shell 3 1681",
        "Satellite Number": 1681,
        "Semi-Major Axis(m)": 6938478.169268562,
        "Time(s)": 330
    },
    {
        "Altitude(m)": 591534.1238607198,
        "Argument of Periapsis(deg)": -0.01348258713370284,
        "Eccentricity": 0.0,
        "Inclination(deg)": 97.0,
        "Latitude(deg)": -80.40208391206033,
        "Longitude(deg)": 62.38106441841453,
        "Mean Anomaly(deg)": 263.33519072197146,
        "RAAN(deg)": 30.0035473653163,
        "Satellite Name": "Starlink Shell 3 1681",
        "Satellite Number": 1681,
        "Semi-Major Axis(m)": 6938478.169268562,
        "Time(s)": 340
    },
    {
        "Altitude(m)": 591585.7312095002,
        "Argument of Periapsis(deg)": -0.013879133814105863,
        "Eccentricity": 0.0,
        "Inclination(deg)": 97.0,
        "Latitude(deg)": -80.81679166759747,
        "Longitude(deg)": 59.51421360324652,
        "Mean Anomaly(deg)": 263.9606669196765,
        "RAAN(deg)": 30.00365169959031,
        "Satellite Name": "Starlink Shell 3 1681",
        "Satellite Number": 1681,
        "Semi-Major Axis(m)": 6938478.169268562,
        "Time(s)": 350
    },
    {
        "Altitude(m)": 591632.324849181,
        "Argument of Periapsis(deg)": -0.01427568049450889,
        "Eccentricity": 0.0,
        "Inclination(deg)": 97.0,
        "Latitude(deg)": -81.20752075089041,
        "Longitude(deg)": 56.39074232692878,
        "Mean Anomaly(deg)": 264.58614311738154,
        "RAAN(deg)": 30.00375603386432,
        "Satellite Name": "Starlink Shell 3 1681",
        "Satellite Number": 1681,
        "Semi-Major Axis(m)": 6938478.169268562,
        "Time(s)": 360
    },
    {
        "Altitude(m)": 591673.8858861936,
        "Argument of Periapsis(deg)": -0.014672227174911913,
        "Eccentricity": 0.0,
        "Inclination(deg)": 97.0,
        "Latitude(deg)": -81.57094099939441,
        "Longitude(deg)": 52.993601881289,
        "Mean Anomaly(deg)": 265.2116193150866,
        "RAAN(deg)": 30.003860368138326,
        "Satellite Name": "Starlink Shell 3 1681",
        "Satellite Number": 1681,
        "Semi-Major Axis(m)": 6938478.169268562,
        "Time(s)": 370
    }
]